start=new Date('2022-04-29T00:00:00.000Z').valueOf();
sats=[{"INCLINATION":"53.2141","RA_OF_ASC_NODE":"302.9567","REV_AT_EPOCH":"764","PERIOD":"91.529","SEMIMAJOR_AXIS":"6727.703","NORAD_CAT_ID":"52126","MEAN_MOTION_DOT":"-0.00057250","CLASSIFICATION_TYPE":"U","CENTER_NAME":"EARTH","REF_FRAME":"TEME","MEAN_MOTION_DDOT":"0.0000000000000","BSTAR":"-0.00040511000000","ARG_OF_PERICENTER":"101.9307","GP_ID":"202223542","ECCENTRICITY":"0.00009980","ELEMENT_SET_NO":"999","RCS_SIZE":"LARGE","EPOCH":"2022-04-28T20:00:01.000224","DECAY_DATE":null,"SITE":"AFETR","OBJECT_ID":"2022-029AQ","APOAPSIS":"350.240","MEAN_MOTION":"15.73267241","OBJECT_NAME":"STARLINK-3732","TLE_LINE2":"2 52126  53.2141 302.9567 0000998 101.9307  83.6904 15.73267241  7648","LAUNCH_DATE":"2022-03-19","MEAN_ELEMENT_THEORY":"SGP4","EPHEMERIS_TYPE":"0","TLE_LINE1":"1 52126U 22029AQ  22118.83334491 -.00057250  00000-0 -40511-3 0  9995","FILE":"3420196","PERIAPSIS":"348.897","TIME_SYSTEM":"UTC","COUNTRY_CODE":"US","OBJECT_TYPE":"PAYLOAD","MEAN_ANOMALY":"83.6904"},{"FILE":"3420061","PERIAPSIS":"348.762","TIME_SYSTEM":"UTC","COUNTRY_CODE":"US","OBJECT_TYPE":"PAYLOAD","MEAN_ANOMALY":"98.0692","EPHEMERIS_TYPE":"0","TLE_LINE1":"1 52127U 22029AR  22118.58334491 -.00077201  00000-0 -54878-3 0  9997","RCS_SIZE":"LARGE","EPOCH":"2022-04-28T14:00:01.000224","SITE":"AFETR","DECAY_DATE":null,"OBJECT_ID":"2022-029AR","APOAPSIS":"350.293","MEAN_MOTION":"15.73281597","OBJECT_NAME":"STARLINK-3715","TLE_LINE2":"2 52127  53.2141 304.1867 0001138 113.0443  98.0692 15.73281597  3705","LAUNCH_DATE":"2022-03-19","MEAN_ELEMENT_THEORY":"SGP4","INCLINATION":"53.2141","RA_OF_ASC_NODE":"304.1867","REV_AT_EPOCH":"370","PERIOD":"91.528","SEMIMAJOR_AXIS":"6727.663","NORAD_CAT_ID":"52127","MEAN_MOTION_DOT":"-0.00077201","CLASSIFICATION_TYPE":"U","REF_FRAME":"TEME","CENTER_NAME":"EARTH","MEAN_MOTION_DDOT":"0.0000000000000","BSTAR":"-0.00054878000000","ARG_OF_PERICENTER":"113.0443","GP_ID":"202220652","ELEMENT_SET_NO":"999","ECCENTRICITY":"0.00011380"},{"INCLINATION":"53.2140","RA_OF_ASC_NODE":"304.1845","REV_AT_EPOCH":"370","NORAD_CAT_ID":"52129","MEAN_MOTION_DOT":"-0.00080109","PERIOD":"91.528","SEMIMAJOR_AXIS":"6727.662","MEAN_MOTION_DDOT":"0.0000000000000","BSTAR":"-0.00056982000000","CLASSIFICATION_TYPE":"U","CENTER_NAME":"EARTH","REF_FRAME":"TEME","GP_ID":"202220483","ELEMENT_SET_NO":"999","ECCENTRICITY":"0.00010810","ARG_OF_PERICENTER":"102.7068","EPOCH":"2022-04-28T14:00:01.000224","DECAY_DATE":null,"SITE":"AFETR","RCS_SIZE":"LARGE","APOAPSIS":"350.255","MEAN_MOTION":"15.73281632","OBJECT_ID":"2022-029AT","TLE_LINE2":"2 52129  53.2140 304.1845 0001081 102.7068 109.5479 15.73281632  3708","OBJECT_NAME":"STARLINK-3661","LAUNCH_DATE":"2022-03-19","MEAN_ELEMENT_THEORY":"SGP4","EPHEMERIS_TYPE":"0","TLE_LINE1":"1 52129U 22029AT  22118.58334491 -.00080109  00000-0 -56982-3 0  9998","FILE":"3420061","PERIAPSIS":"348.800","TIME_SYSTEM":"UTC","MEAN_ANOMALY":"109.5479","OBJECT_TYPE":"PAYLOAD","COUNTRY_CODE":"US"},{"TLE_LINE1":"1 52131U 22029AV  22118.58334491 -.00036340  00000-0 -25476-3 0  9993","EPHEMERIS_TYPE":"0","FILE":"3420061","PERIAPSIS":"348.875","TIME_SYSTEM":"UTC","COUNTRY_CODE":"US","MEAN_ANOMALY":"99.0617","OBJECT_TYPE":"PAYLOAD","CLASSIFICATION_TYPE":"U","REF_FRAME":"TEME","CENTER_NAME":"EARTH","MEAN_MOTION_DDOT":"0.0000000000000","BSTAR":"-0.00025476000000","ARG_OF_PERICENTER":"113.7622","GP_ID":"202220404","ECCENTRICITY":"0.00009800","ELEMENT_SET_NO":"999","RA_OF_ASC_NODE":"304.1829","INCLINATION":"53.2139","REV_AT_EPOCH":"370","PERIOD":"91.529","SEMIMAJOR_AXIS":"6727.669","NORAD_CAT_ID":"52131","MEAN_MOTION_DOT":"-0.00036340","OBJECT_NAME":"STARLINK-3711","TLE_LINE2":"2 52131  53.2139 304.1829 0000980 113.7622  99.0617 15.73279349  3705","LAUNCH_DATE":"2022-03-19","MEAN_ELEMENT_THEORY":"SGP4","RCS_SIZE":"LARGE","EPOCH":"2022-04-28T14:00:01.000224","SITE":"AFETR","DECAY_DATE":null,"APOAPSIS":"350.193","MEAN_MOTION":"15.73279349","OBJECT_ID":"2022-029AV"},{"TLE_LINE1":"1 52132U 22029AW  22118.83334491 -.00044940  00000-0 -31653-3 0  9991","EPHEMERIS_TYPE":"0","COUNTRY_CODE":"US","MEAN_ANOMALY":"93.2183","OBJECT_TYPE":"PAYLOAD","FILE":"3420197","PERIAPSIS":"348.851","TIME_SYSTEM":"UTC","ARG_OF_PERICENTER":"95.2521","GP_ID":"202223553","ECCENTRICITY":"0.00010510","ELEMENT_SET_NO":"999","CLASSIFICATION_TYPE":"U","CENTER_NAME":"EARTH","REF_FRAME":"TEME","MEAN_MOTION_DDOT":"0.0000000000000","BSTAR":"-0.00031653000000","PERIOD":"91.529","SEMIMAJOR_AXIS":"6727.693","NORAD_CAT_ID":"52132","MEAN_MOTION_DOT":"-0.00044940","INCLINATION":"53.2139","RA_OF_ASC_NODE":"302.9503","REV_AT_EPOCH":"765","LAUNCH_DATE":"2022-03-19","MEAN_ELEMENT_THEORY":"SGP4","OBJECT_NAME":"STARLINK-3718","TLE_LINE2":"2 52132  53.2139 302.9503 0001051  95.2521  93.2183 15.73270898  7655","APOAPSIS":"350.265","OBJECT_ID":"2022-029AW","MEAN_MOTION":"15.73270898","RCS_SIZE":"LARGE","EPOCH":"2022-04-28T20:00:01.000224","DECAY_DATE":null,"SITE":"AFETR"},{"LAUNCH_DATE":"2022-03-19","MEAN_ELEMENT_THEORY":"SGP4","OBJECT_NAME":"STARLINK-3707","TLE_LINE2":"2 52133  53.2138 304.1802 0001025 112.2672 101.7397 15.73265294  3707","OBJECT_ID":"2022-029AX","APOAPSIS":"350.264","MEAN_MOTION":"15.73265294","RCS_SIZE":"LARGE","EPOCH":"2022-04-28T14:00:01.000224","SITE":"AFETR","DECAY_DATE":null,"ARG_OF_PERICENTER":"112.2672","GP_ID":"202220323","ELEMENT_SET_NO":"999","ECCENTRICITY":"0.00010250","CLASSIFICATION_TYPE":"U","REF_FRAME":"TEME","CENTER_NAME":"EARTH","MEAN_MOTION_DDOT":"0.0000000000000","BSTAR":"-0.00016226000000","PERIOD":"91.529","SEMIMAJOR_AXIS":"6727.709","NORAD_CAT_ID":"52133","MEAN_MOTION_DOT":"-0.00023392","INCLINATION":"53.2138","REV_AT_EPOCH":"370","RA_OF_ASC_NODE":"304.1802","COUNTRY_CODE":"US","MEAN_ANOMALY":"101.7397","OBJECT_TYPE":"PAYLOAD","FILE":"3420061","TIME_SYSTEM":"UTC","PERIAPSIS":"348.884","TLE_LINE1":"1 52133U 22029AX  22118.58334491 -.00023392  00000-0 -16226-3 0  9991","EPHEMERIS_TYPE":"0"},{"TLE_LINE1":"1 52134U 22029AY  22118.83334491 -.00048159  00000-0 -33976-3 0  9999","EPHEMERIS_TYPE":"0","MEAN_ANOMALY":"83.2358","OBJECT_TYPE":"PAYLOAD","COUNTRY_CODE":"US","FILE":"3420197","TIME_SYSTEM":"UTC","PERIAPSIS":"348.840","GP_ID":"202223548","ELEMENT_SET_NO":"999","ECCENTRICITY":"0.00010980","ARG_OF_PERICENTER":"106.9619","MEAN_MOTION_DDOT":"0.0000000000000","BSTAR":"-0.00033976000000","CLASSIFICATION_TYPE":"U","CENTER_NAME":"EARTH","REF_FRAME":"TEME","NORAD_CAT_ID":"52134","MEAN_MOTION_DOT":"-0.00048159","PERIOD":"91.529","SEMIMAJOR_AXIS":"6727.714","REV_AT_EPOCH":"765","RA_OF_ASC_NODE":"302.9470","INCLINATION":"53.2139","LAUNCH_DATE":"2022-03-19","MEAN_ELEMENT_THEORY":"SGP4","TLE_LINE2":"2 52134  53.2139 302.9470 0001098 106.9619  83.2358 15.73263693  7657","OBJECT_NAME":"STARLINK-3721","APOAPSIS":"350.317","OBJECT_ID":"2022-029AY","MEAN_MOTION":"15.73263693","EPOCH":"2022-04-28T20:00:01.000224","SITE":"AFETR","DECAY_DATE":null,"RCS_SIZE":"LARGE"},{"DECAY_DATE":null,"SITE":"AFETR","EPOCH":"2022-04-28T14:00:01.000224","RCS_SIZE":"LARGE","APOAPSIS":"350.245","OBJECT_ID":"2022-029AZ","MEAN_MOTION":"15.73277717","TLE_LINE2":"2 52135  53.2139 304.1767 0001050 109.5542 106.1092 15.73277717  3707","OBJECT_NAME":"STARLINK-3729","MEAN_ELEMENT_THEORY":"SGP4","LAUNCH_DATE":"2022-03-19","INCLINATION":"53.2139","RA_OF_ASC_NODE":"304.1767","REV_AT_EPOCH":"370","MEAN_MOTION_DOT":"-0.00045416","NORAD_CAT_ID":"52135","SEMIMAJOR_AXIS":"6727.674","PERIOD":"91.529","BSTAR":"-0.00031986000000","MEAN_MOTION_DDOT":"0.0000000000000","CENTER_NAME":"EARTH","REF_FRAME":"TEME","CLASSIFICATION_TYPE":"U","ELEMENT_SET_NO":"999","ECCENTRICITY":"0.00010500","GP_ID":"202220733","ARG_OF_PERICENTER":"109.5542","TIME_SYSTEM":"UTC","PERIAPSIS":"348.832","FILE":"3420061","MEAN_ANOMALY":"106.1092","OBJECT_TYPE":"PAYLOAD","COUNTRY_CODE":"US","EPHEMERIS_TYPE":"0","TLE_LINE1":"1 52135U 22029AZ  22118.58334491 -.00045416  00000-0 -31986-3 0  9994"},{"RCS_SIZE":"LARGE","DECAY_DATE":null,"SITE":"AFETR","EPOCH":"2022-04-28T14:00:01.000224","MEAN_MOTION":"15.73270609","APOAPSIS":"350.262","OBJECT_ID":"2022-029BA","OBJECT_NAME":"STARLINK-3720","TLE_LINE2":"2 52136  53.2140 304.1801 0001045 113.1976 101.3636 15.73270609  3709","MEAN_ELEMENT_THEORY":"SGP4","LAUNCH_DATE":"2022-03-19","REV_AT_EPOCH":"370","RA_OF_ASC_NODE":"304.1801","INCLINATION":"53.2140","SEMIMAJOR_AXIS":"6727.694","PERIOD":"91.529","MEAN_MOTION_DOT":"-0.00039238","NORAD_CAT_ID":"52136","CENTER_NAME":"EARTH","REF_FRAME":"TEME","CLASSIFICATION_TYPE":"U","BSTAR":"-0.00027563000000","MEAN_MOTION_DDOT":"0.0000000000000","ARG_OF_PERICENTER":"113.1976","ELEMENT_SET_NO":"999","ECCENTRICITY":"0.00010450","GP_ID":"202220241","TIME_SYSTEM":"UTC","PERIAPSIS":"348.856","FILE":"3420061","COUNTRY_CODE":"US","OBJECT_TYPE":"PAYLOAD","MEAN_ANOMALY":"101.3636","EPHEMERIS_TYPE":"0","TLE_LINE1":"1 52136U 22029BA  22118.58334491 -.00039238  00000-0 -27563-3 0  9996"},{"EPHEMERIS_TYPE":"0","TLE_LINE1":"1 52137U 22029BB  22118.58334491 -.00050014  00000-0 -35273-3 0  9999","COUNTRY_CODE":"US","OBJECT_TYPE":"PAYLOAD","MEAN_ANOMALY":"114.1535","PERIAPSIS":"348.903","TIME_SYSTEM":"UTC","FILE":"3420061","SEMIMAJOR_AXIS":"6727.645","PERIOD":"91.528","MEAN_MOTION_DOT":"-0.00050014","NORAD_CAT_ID":"52137","REV_AT_EPOCH":"370","RA_OF_ASC_NODE":"304.1754","INCLINATION":"53.2139","ARG_OF_PERICENTER":"102.1045","ECCENTRICITY":"0.00009020","ELEMENT_SET_NO":"999","GP_ID":"202220653","CENTER_NAME":"EARTH","REF_FRAME":"TEME","CLASSIFICATION_TYPE":"U","BSTAR":"-0.00035273000000","MEAN_MOTION_DDOT":"0.0000000000000","APOAPSIS":"350.117","OBJECT_ID":"2022-029BB","MEAN_MOTION":"15.73287810","RCS_SIZE":"LARGE","SITE":"AFETR","DECAY_DATE":null,"EPOCH":"2022-04-28T14:00:01.000224","MEAN_ELEMENT_THEORY":"SGP4","LAUNCH_DATE":"2022-03-19","OBJECT_NAME":"STARLINK-3733","TLE_LINE2":"2 52137  53.2139 304.1754 0000902 102.1045 114.1535 15.73287810  3703"}];
